*******************************************************************************
Ephemeris / WWW_USER Fri Mar  7 09:53:02 2025 Pasadena, USA      / Horizons    
*******************************************************************************
Target body name: Triton (801)                    {source: nep097_merged}
Center body name: Earth (399)                     {source: nep097_merged}
Center-site name: Mauna Kea
*******************************************************************************
Start time      : A.D. 2018-Sep-14 04:35:00.0000 UT      
Stop  time      : A.D. 2018-Sep-14 16:00:00.0000 UT      
Step-size       : 1 minutes
*******************************************************************************
Target pole/equ : IAU_TRITON                      {East-longitude positive}
Target radii    : 1352.6, 1352.6, 1352.6 km       {Equator_a, b, pole_c}       
Center geodetic : 204.5278, 19.8260847, 4.21024   {E-lon(deg),Lat(deg),Alt(km)}
Center cylindric: 204.5278, 6006.35451, 2151.0229 {E-lon(deg),Dxy(km),Dz(km)}
Center pole/equ : ITRF93                          {East-longitude positive}
Center radii    : 6378.137, 6378.137, 6356.752 km {Equator_a, b, pole_c}       
Target primary  : Neptune
Vis. interferer : MOON (R_eq= 1737.400) km        {source: DE441}
Rel. light bend : Sun                             {source: nep097_merged}
Rel. lght bnd GM: 1.3271E+11 km^3/s^2                                          
Atmos refraction: NO (AIRLESS)
RA format       : HMS
Time format     : CAL 
Calendar mode   : Mixed Julian/Gregorian
RTS-only print  : NO       
EOP file        : eop.250306.p250602                                           
EOP coverage    : DATA-BASED 1962-JAN-20 TO 2025-MAR-06. PREDICTS-> 2025-JUN-01
Units conversion: 1 au= 149597870.700 km, c= 299792.458 km/s, 1 day= 86400.0 s 
Table cut-offs 1: Elevation (-90.0deg=NO ),Airmass (>38.000=NO), Daylight (YES)
Table cut-offs 2: Solar elongation (  0.0,180.0=NO ),Local Hour Angle( 0.0=NO )
Table cut-offs 3: RA/DEC angular rate (     0.0=NO )                           
*******************************************************************************
 Date__(UT)__HR:MN     R.A._________(ICRF)_________DEC
******************************************************
$$SOE
 2018-Sep-14 06:55  m  23 04 58.447471 -06 58 13.54480
 2018-Sep-14 06:56  m  23 04 58.443114 -06 58 13.58231
 2018-Sep-14 06:57  m  23 04 58.438758 -06 58 13.61982
 2018-Sep-14 06:58  m  23 04 58.434400 -06 58 13.65733
 2018-Sep-14 06:59  m  23 04 58.430042 -06 58 13.69485
 2018-Sep-14 07:00  m  23 04 58.425682 -06 58 13.73237
 2018-Sep-14 07:01  m  23 04 58.421323 -06 58 13.76989
 2018-Sep-14 07:02  m  23 04 58.416962 -06 58 13.80741
 2018-Sep-14 07:03  m  23 04 58.412601 -06 58 13.84493
 2018-Sep-14 07:04  m  23 04 58.408239 -06 58 13.88246
 2018-Sep-14 07:05  m  23 04 58.403876 -06 58 13.91999
 2018-Sep-14 07:06  m  23 04 58.399513 -06 58 13.95752
 2018-Sep-14 07:07  m  23 04 58.395149 -06 58 13.99505
 2018-Sep-14 07:08  m  23 04 58.390784 -06 58 14.03258
 2018-Sep-14 07:09  m  23 04 58.386418 -06 58 14.07012
 2018-Sep-14 07:10  m  23 04 58.382052 -06 58 14.10766
 2018-Sep-14 07:11  m  23 04 58.377685 -06 58 14.14520
 2018-Sep-14 07:12  m  23 04 58.373317 -06 58 14.18274
 2018-Sep-14 07:13  m  23 04 58.368949 -06 58 14.22028
 2018-Sep-14 07:14  m  23 04 58.364580 -06 58 14.25783
 2018-Sep-14 07:15  m  23 04 58.360210 -06 58 14.29537
 2018-Sep-14 07:16  m  23 04 58.355840 -06 58 14.33292
 2018-Sep-14 07:17  m  23 04 58.351468 -06 58 14.37047
 2018-Sep-14 07:18  m  23 04 58.347097 -06 58 14.40803
 2018-Sep-14 07:19  m  23 04 58.342724 -06 58 14.44558
 2018-Sep-14 07:20  m  23 04 58.338351 -06 58 14.48314
 2018-Sep-14 07:21  m  23 04 58.333977 -06 58 14.52070
 2018-Sep-14 07:22  m  23 04 58.329602 -06 58 14.55826
 2018-Sep-14 07:23  m  23 04 58.325227 -06 58 14.59582
 2018-Sep-14 07:24  m  23 04 58.320851 -06 58 14.63338
 2018-Sep-14 07:25  m  23 04 58.316474 -06 58 14.67095
 2018-Sep-14 07:26  m  23 04 58.312096 -06 58 14.70851
 2018-Sep-14 07:27  m  23 04 58.307718 -06 58 14.74608
 2018-Sep-14 07:28  m  23 04 58.303339 -06 58 14.78365
 2018-Sep-14 07:29  m  23 04 58.298960 -06 58 14.82123
 2018-Sep-14 07:30  m  23 04 58.294580 -06 58 14.85880
 2018-Sep-14 07:31  m  23 04 58.290199 -06 58 14.89638
 2018-Sep-14 07:32  m  23 04 58.285817 -06 58 14.93395
 2018-Sep-14 07:33  m  23 04 58.281435 -06 58 14.97153
 2018-Sep-14 07:34  m  23 04 58.277052 -06 58 15.00912
 2018-Sep-14 07:35  m  23 04 58.272669 -06 58 15.04670
 2018-Sep-14 07:36  m  23 04 58.268284 -06 58 15.08428
 2018-Sep-14 07:37  m  23 04 58.263899 -06 58 15.12187
 2018-Sep-14 07:38  m  23 04 58.259514 -06 58 15.15946
 2018-Sep-14 07:39  m  23 04 58.255128 -06 58 15.19705
 2018-Sep-14 07:40  m  23 04 58.250741 -06 58 15.23464
 2018-Sep-14 07:41  m  23 04 58.246353 -06 58 15.27223
 2018-Sep-14 07:42  m  23 04 58.241965 -06 58 15.30983
 2018-Sep-14 07:43  m  23 04 58.237576 -06 58 15.34742
 2018-Sep-14 07:44  m  23 04 58.233186 -06 58 15.38502
 2018-Sep-14 07:45  m  23 04 58.228796 -06 58 15.42262
 2018-Sep-14 07:46  m  23 04 58.224405 -06 58 15.46022
 2018-Sep-14 07:47  m  23 04 58.220013 -06 58 15.49782
 2018-Sep-14 07:48  m  23 04 58.215621 -06 58 15.53543
 2018-Sep-14 07:49  m  23 04 58.211228 -06 58 15.57303
 2018-Sep-14 07:50  m  23 04 58.206835 -06 58 15.61064
 2018-Sep-14 07:51  m  23 04 58.202440 -06 58 15.64825
 2018-Sep-14 07:52  m  23 04 58.198045 -06 58 15.68586
 2018-Sep-14 07:53  m  23 04 58.193650 -06 58 15.72347
 2018-Sep-14 07:54  m  23 04 58.189254 -06 58 15.76109
 2018-Sep-14 07:55  m  23 04 58.184857 -06 58 15.79870
 2018-Sep-14 07:56  m  23 04 58.180459 -06 58 15.83632
 2018-Sep-14 07:57  m  23 04 58.176061 -06 58 15.87394
 2018-Sep-14 07:58     23 04 58.171663 -06 58 15.91156
 2018-Sep-14 07:59     23 04 58.167263 -06 58 15.94918
 2018-Sep-14 08:00     23 04 58.162863 -06 58 15.98680
 2018-Sep-14 08:01     23 04 58.158462 -06 58 16.02443
 2018-Sep-14 08:02     23 04 58.154061 -06 58 16.06206
 2018-Sep-14 08:03     23 04 58.149659 -06 58 16.09968
 2018-Sep-14 08:04     23 04 58.145256 -06 58 16.13731
 2018-Sep-14 08:05     23 04 58.140853 -06 58 16.17494
 2018-Sep-14 08:06     23 04 58.136449 -06 58 16.21258
 2018-Sep-14 08:07     23 04 58.132045 -06 58 16.25021
 2018-Sep-14 08:08     23 04 58.127640 -06 58 16.28784
 2018-Sep-14 08:09     23 04 58.123234 -06 58 16.32548
 2018-Sep-14 08:10     23 04 58.118828 -06 58 16.36312
 2018-Sep-14 08:11     23 04 58.114420 -06 58 16.40076
 2018-Sep-14 08:12     23 04 58.110013 -06 58 16.43840
 2018-Sep-14 08:13     23 04 58.105605 -06 58 16.47604
 2018-Sep-14 08:14     23 04 58.101196 -06 58 16.51369
 2018-Sep-14 08:15     23 04 58.096786 -06 58 16.55133
 2018-Sep-14 08:16     23 04 58.092376 -06 58 16.58898
 2018-Sep-14 08:17     23 04 58.087965 -06 58 16.62663
 2018-Sep-14 08:18     23 04 58.083554 -06 58 16.66427
 2018-Sep-14 08:19     23 04 58.079142 -06 58 16.70193
 2018-Sep-14 08:20     23 04 58.074729 -06 58 16.73958
 2018-Sep-14 08:21     23 04 58.070316 -06 58 16.77723
 2018-Sep-14 08:22     23 04 58.065902 -06 58 16.81489
 2018-Sep-14 08:23     23 04 58.061488 -06 58 16.85254
 2018-Sep-14 08:24     23 04 58.057073 -06 58 16.89020
 2018-Sep-14 08:25     23 04 58.052657 -06 58 16.92786
 2018-Sep-14 08:26     23 04 58.048241 -06 58 16.96552
 2018-Sep-14 08:27     23 04 58.043824 -06 58 17.00318
 2018-Sep-14 08:28     23 04 58.039407 -06 58 17.04084
 2018-Sep-14 08:29     23 04 58.034989 -06 58 17.07851
 2018-Sep-14 08:30     23 04 58.030570 -06 58 17.11617
 2018-Sep-14 08:31     23 04 58.026151 -06 58 17.15384
 2018-Sep-14 08:32     23 04 58.021731 -06 58 17.19151
 2018-Sep-14 08:33     23 04 58.017311 -06 58 17.22918
 2018-Sep-14 08:34     23 04 58.012890 -06 58 17.26685
 2018-Sep-14 08:35     23 04 58.008468 -06 58 17.30452
 2018-Sep-14 08:36     23 04 58.004046 -06 58 17.34219
 2018-Sep-14 08:37     23 04 57.999623 -06 58 17.37987
 2018-Sep-14 08:38     23 04 57.995200 -06 58 17.41754
 2018-Sep-14 08:39     23 04 57.990776 -06 58 17.45522
 2018-Sep-14 08:40     23 04 57.986352 -06 58 17.49290
 2018-Sep-14 08:41     23 04 57.981927 -06 58 17.53058
 2018-Sep-14 08:42     23 04 57.977501 -06 58 17.56826
 2018-Sep-14 08:43     23 04 57.973075 -06 58 17.60594
 2018-Sep-14 08:44     23 04 57.968648 -06 58 17.64362
 2018-Sep-14 08:45     23 04 57.964220 -06 58 17.68131
 2018-Sep-14 08:46     23 04 57.959793 -06 58 17.71899
 2018-Sep-14 08:47     23 04 57.955364 -06 58 17.75668
 2018-Sep-14 08:48     23 04 57.950935 -06 58 17.79437
 2018-Sep-14 08:49     23 04 57.946505 -06 58 17.83206
 2018-Sep-14 08:50     23 04 57.942075 -06 58 17.86975
 2018-Sep-14 08:51     23 04 57.937644 -06 58 17.90744
 2018-Sep-14 08:52     23 04 57.933213 -06 58 17.94513
 2018-Sep-14 08:53     23 04 57.928781 -06 58 17.98282
 2018-Sep-14 08:54     23 04 57.924349 -06 58 18.02052
 2018-Sep-14 08:55     23 04 57.919916 -06 58 18.05822
 2018-Sep-14 08:56     23 04 57.915482 -06 58 18.09591
 2018-Sep-14 08:57     23 04 57.911048 -06 58 18.13361
 2018-Sep-14 08:58     23 04 57.906613 -06 58 18.17131
 2018-Sep-14 08:59     23 04 57.902178 -06 58 18.20901
 2018-Sep-14 09:00     23 04 57.897742 -06 58 18.24671
 2018-Sep-14 09:01     23 04 57.893306 -06 58 18.28441
 2018-Sep-14 09:02     23 04 57.888869 -06 58 18.32212
 2018-Sep-14 09:03     23 04 57.884432 -06 58 18.35982
 2018-Sep-14 09:04     23 04 57.879994 -06 58 18.39753
 2018-Sep-14 09:05     23 04 57.875555 -06 58 18.43524
 2018-Sep-14 09:06     23 04 57.871116 -06 58 18.47294
 2018-Sep-14 09:07     23 04 57.866677 -06 58 18.51065
 2018-Sep-14 09:08     23 04 57.862236 -06 58 18.54836
 2018-Sep-14 09:09     23 04 57.857796 -06 58 18.58607
 2018-Sep-14 09:10     23 04 57.853355 -06 58 18.62379
 2018-Sep-14 09:11     23 04 57.848913 -06 58 18.66150
 2018-Sep-14 09:12     23 04 57.844471 -06 58 18.69921
 2018-Sep-14 09:13     23 04 57.840028 -06 58 18.73693
 2018-Sep-14 09:14     23 04 57.835585 -06 58 18.77464
